PDB04 ? XNZ i P c 20180522 2157 16.347 GAU 0.0 0.0 -0.00781595 0.0
OT12 ? XNZ i P c 20180522 2157 16.347 GAU 0.0 0.0 -2.0337873E-4 0.0
PDB01 ? XNZ i P c 20180522 2157 16.348 GAU 0.0 0.0 -0.019447543 0.0
PDB03 ? XNZ i P c 20180522 2157 16.348 GAU 0.0 0.0 -0.016263278 0.0
PDB10 ? XNZ i P c 20180522 2157 16.348 GAU 0.0 0.0 0.019348001 0.0
PDB07 ? XNZ e P c 20180522 2157 16.349 GAU 0.0 0.0 0.0051606423 0.0
PDB09 ? XNZ i P c 20180522 2157 16.350 GAU 0.0 0.0 0.01698614 0.0
PDB05 ? XNZ i P c 20180522 2157 16.352 GAU 0.0 0.0 -0.002992607 0.0

PDB04 ? XNZ i P c 20180522 2157 23.988 GAU 0.0 0.0 -0.007944421 0.0
OT12 ? XNZ i P c 20180522 2157 23.988 GAU 0.0 0.0 -9.44084E-4 0.0
PDB01 ? XNZ i P c 20180522 2157 23.988 GAU 0.0 0.0 -0.019418756 0.0
PDB10 ? XNZ i P c 20180522 2157 23.988 GAU 0.0 0.0 0.019032363 0.0
PDB07 ? XNZ i P c 20180522 2157 23.990 GAU 0.0 0.0 0.004856882 0.0
PDB05 ? XNZ i P c 20180522 2157 23.993 GAU 0.0 0.0 -0.0033639756 0.0

PDB04 ? XNZ i P c 20180522 2157 29.335 GAU 0.0 0.0 -0.007934654 0.0
OT12 ? XNZ i P c 20180522 2157 29.335 GAU 0.0 0.0 -4.005921E-4 0.0
PDB10 ? XNZ i P c 20180522 2157 29.336 GAU 0.0 0.0 0.018865408 0.0
PDB07 ? XNZ i P c 20180522 2157 29.335 GAU 0.0 0.0 0.0050844774 0.0
PDB03 ? XNZ i P c 20180522 2157 29.336 GAU 0.0 0.0 -0.016570881 0.0
OB13 ? XNZ i P c 20180522 2157 29.337 GAU 0.0 0.0 -0.0088587515 0.0

PDB04 ? XNZ i P c 20180522 2157 29.813 GAU 0.0 0.0 -0.007689927 0.0
OT12 ? XNZ i P c 20180522 2157 29.814 GAU 0.0 0.0 -0.002371315 0.0
PDB03 ? XNZ i P c 20180522 2157 29.814 GAU 0.0 0.0 -0.016542787 0.0
PDB10 ? XNZ i P c 20180522 2157 29.814 GAU 0.0 0.0 0.018634068 0.0
OB13 ? XNZ i P c 20180522 2157 29.814 GAU 0.0 0.0 6.928656E-4 0.0
PDB07 ? XNZ i P c 20180522 2157 29.815 GAU 0.0 0.0 0.0051106643 0.0
PDB09 ? XNZ i P c 20180522 2157 29.816 GAU 0.0 0.0 0.017114053 0.0

PDB01 ? XNZ i P c 20180522 2157 40.582 GAU 0.0 0.0 -0.01900962 0.0
PDB04 ? XNZ i P c 20180522 2157 40.583 GAU 0.0 0.0 -0.0073916577 0.0
PDB03 ? XNZ i P c 20180522 2157 40.583 GAU 0.0 0.0 -0.016010111 0.0
OT12 ? XNZ i P c 20180522 2157 40.583 GAU 0.0 0.0 -0.001037193 0.0
PDB10 ? XNZ i P c 20180522 2157 40.584 GAU 0.0 0.0 0.019111525 0.0
PDB07 ? XNZ i P c 20180522 2157 40.584 GAU 0.0 0.0 0.0053505213 0.0
OB13 ? XNZ i P c 20180522 2157 40.585 GAU 0.0 0.0 -0.008246938 0.0
PDB05 ? XNZ i P c 20180522 2157 40.589 GAU 0.0 0.0 -0.002797984 0.0

PDB04 ? XNZ i P c 20180522 2157 50.032 GAU 0.0 0.0 -0.007905677 0.0
OT12 ? XNZ i P c 20180522 2157 50.032 GAU 0.0 0.0 -0.0011338457 0.0
PDB10 ? XNZ i P c 20180522 2157 50.033 GAU 0.0 0.0 0.018805495 0.0
PDB01 ? XNZ i P c 20180522 2157 50.033 GAU 0.0 0.0 -0.019690914 0.0
OB13 ? XNZ i P c 20180522 2157 50.035 GAU 0.0 0.0 -0.009560292 0.0
PDB09 ? XNZ i P c 20180522 2157 50.037 GAU 0.0 0.0 0.017770901 0.0
PDB05 ? XNZ i P c 20180522 2157 50.038 GAU 0.0 0.0 -0.0031287526 0.0

PDB04 ? XNZ i P c 20180522 2158 28.694 GAU 0.0 0.0 -0.008006293 0.0
OT12 ? XNZ i P c 20180522 2158 28.695 GAU 0.0 0.0 -5.352672E-4 0.0
PDB01 ? XNZ i P c 20180522 2158 28.695 GAU 0.0 0.0 -0.019218907 0.0
PDB10 ? XNZ i P c 20180522 2158 28.695 GAU 0.0 0.0 0.018947413 0.0
PDB03 ? XNZ i P c 20180522 2158 28.696 GAU 0.0 0.0 -0.016831966 0.0
PDB07 ? XNZ i P c 20180522 2158 28.697 GAU 0.0 0.0 0.004806864 0.0
PDB05 ? XNZ i P ? 20180522 2158 28.700 GAU 0.0 0.0 -0.0028382195 0.0

OT12 ? XNZ i P c 20180522 2158 31.287 GAU 0.0 0.0 -1.8150778E-4 0.0
PDB01 ? XNZ i P c 20180522 2158 31.288 GAU 0.0 0.0 -0.019283133 0.0
PDB10 ? XNZ i P c 20180522 2158 31.289 GAU 0.0 0.0 0.01916684 0.0
OB13 ? XNZ i P c 20180522 2158 31.289 GAU 0.0 0.0 -0.008625795 0.0
PDB07 ? XNZ i P c 20180522 2158 31.290 GAU 0.0 0.0 0.0052259723 0.0
PDB09 ? XNZ i P c 20180522 2158 31.291 GAU 0.0 0.0 0.01707362 0.0

PDB01 ? XNZ i P c 20180522 2159 01.610 GAU 0.0 0.0 -0.019589782 0.0
PDB10 ? XNZ i P c 20180522 2159 01.610 GAU 0.0 0.0 0.018809834 0.0
OT12 ? XNZ i P c 20180522 2159 01.610 GAU 0.0 0.0 -0.0017392845 0.0
PDB04 ? XNZ i P c 20180522 2159 01.611 GAU 0.0 0.0 -0.007955908 0.0
PDB03 ? XNZ i P c 20180522 2159 01.611 GAU 0.0 0.0 -0.016229153 0.0
PDB07 ? XNZ i P c 20180522 2159 01.612 GAU 0.0 0.0 0.0046482403 0.0
PDB05 ? XNZ i P c 20180522 2159 01.613 GAU 0.0 0.0 -0.002998116 0.0
OB13 ? XNZ i P c 20180522 2159 01.613 GAU 0.0 0.0 -0.008592673 0.0

PDB04 ? XNZ i P c 20180522 2159 06.834 GAU 0.0 0.0 -0.007969555 0.0
OT12 ? XNZ i P c 20180522 2159 06.836 GAU 0.0 0.0 -6.146171E-4 0.0
PDB01 ? XNZ i P c 20180522 2159 06.836 GAU 0.0 0.0 -0.019213557 0.0
PDB03 ? XNZ i P c 20180522 2159 06.836 GAU 0.0 0.0 -0.01617114 0.0
PDB10 ? XNZ i P c 20180522 2159 06.836 GAU 0.0 0.0 0.019125687 0.0
PDB07 ? XNZ i P c 20180522 2159 06.838 GAU 0.0 0.0 0.0050818874 0.0
PDB05 ? XNZ i P c 20180522 2159 06.841 GAU 0.0 0.0 -0.0027264643 0.0

PDB04 ? XNZ i P d 20180522 2159 10.334 GAU 0.0 0.0 -0.008776028 0.0
PDB03 ? XNZ i P c 20180522 2159 10.334 GAU 0.0 0.0 -0.016747812 0.0
PDB01 ? XNZ i P c 20180522 2159 10.334 GAU 0.0 0.0 -0.019591812 0.0
OT12 ? XNZ i P c 20180522 2159 10.334 GAU 0.0 0.0 -3.5677716E-5 0.0
PDB10 ? XNZ i P c 20180522 2159 10.335 GAU 0.0 0.0 0.01904268 0.0
OB13 ? XNZ i P c 20180522 2159 10.337 GAU 0.0 0.0 -0.009092367 0.0
PST12 ? XNZ i P c 20180522 2159 10.338 GAU 0.0 0.0 0.019343736 0.0
PDB09 ? XNZ i P c 20180522 2159 10.338 GAU 0.0 0.0 0.017357972 0.0

PDB04 ? XNZ e P c 20180522 2159 34.900 GAU 0.0 0.0 -0.0077917636 0.0
PDB01 ? XNZ i P c 20180522 2159 34.900 GAU 0.0 0.0 -0.019254507 0.0
PDB10 ? XNZ i P c 20180522 2159 34.900 GAU 0.0 0.0 0.0193639 0.0
PDB07 ? XNZ e P c 20180522 2159 34.902 GAU 0.0 0.0 0.0048051286 0.0

PDB01 ? XNZ i P c 20180522 2159 50.478 GAU 0.0 0.0 -0.019306032 0.0
PDB04 ? XNZ i P c 20180522 2159 50.478 GAU 0.0 0.0 -0.007715861 0.0
OT12 ? XNZ i P c 20180522 2159 50.478 GAU 0.0 0.0 -0.002119433 0.0
OB13 ? XNZ i P c 20180522 2159 50.480 GAU 0.0 0.0 -0.008557095 0.0
PDB09 ? XNZ i P c 20180522 2159 50.482 GAU 0.0 0.0 0.017150646 0.0
PDB05 ? XNZ i P c 20180522 2159 50.483 GAU 0.0 0.0 -0.0027886569 0.0

PDB04 ? XNZ i P c 20180522 2200 08.219 GAU 0.0 0.0 -0.008343834 0.0
OT12 ? XNZ i P c 20180522 2200 08.220 GAU 0.0 0.0 -0.0011189814 0.0
PDB01 ? XNZ i P c 20180522 2200 08.220 GAU 0.0 0.0 -0.019719006 0.0
PDB10 ? XNZ e P c 20180522 2200 08.220 GAU 0.0 0.0 0.019163202 0.0
PDB03 ? XNZ i P c 20180522 2200 08.221 GAU 0.0 0.0 -0.016275479 0.0
PDB05 ? XNZ i P c 20180522 2200 08.222 GAU 0.0 0.0 -0.0028681848 0.0

PDB04 ? XNZ i P c 20180522 2201 02.438 GAU 0.0 0.0 -0.0082330145 0.0
OT12 ? XNZ i P c 20180522 2201 02.439 GAU 0.0 0.0 -0.0010945951 0.0
PDB01 ? XNZ i P d 20180522 2201 02.439 GAU 0.0 0.0 -0.019727264 0.0
PDB10 ? XNZ i P c 20180522 2201 02.440 GAU 0.0 0.0 0.01965528 0.0
PDB05 ? XNZ i P c 20180522 2201 02.444 GAU 0.0 0.0 -0.002510969 0.0

OT12 ? XNZ i P c 20180522 2201 56.893 GAU 0.0 0.0 -0.0011439575 0.0
PDB01 ? XNZ i P c 20180522 2201 56.893 GAU 0.0 0.0 -0.01895562 0.0
PDB03 ? XNZ i P c 20180522 2201 56.893 GAU 0.0 0.0 -0.016817752 0.0
PDB04 ? XNZ i P c 20180522 2201 56.893 GAU 0.0 0.0 -0.008059286 0.0
PDB05 ? XNZ i P c 20180522 2201 56.898 GAU 0.0 0.0 -0.0031056162 0.0

OT12 ? XNZ i P c 20180522 2202 09.735 GAU 0.0 0.0 -0.0013249437 0.0
PDB03 ? XNZ i P c 20180522 2202 09.735 GAU 0.0 0.0 -0.016750185 0.0
PDB04 ? XNZ i P c 20180522 2202 09.735 GAU 0.0 0.0 -0.008399981 0.0
PDB10 ? XNZ i P c 20180522 2202 09.735 GAU 0.0 0.0 0.018638818 0.0

PDB09 ? XN1 i P c 20180522 2202 09.793 GAU 0.0 0.0 -0.05195667 0.0
PDB08 ? XN1 ? P c 20180522 2202 09.793 GAU 0.0 0.0 -0.050203893 0.0
PDB06 ? XN1 i P c 20180522 2202 09.793 GAU 0.0 0.0 -0.050292592 0.0
PDB05 ? XN1 i P c 20180522 2202 09.793 GAU 0.0 0.0 -0.050568447 0.0
PDB04 ? XN1 i P c 20180522 2202 09.793 GAU 0.0 0.0 -0.050401136 0.0
PDB04 ? XNZ i P ? 20180522 2202 09.793 GAU 0.0 0.0 -0.008103315 0.0
OT12 ? XNZ i P c 20180522 2202 09.794 GAU 0.0 0.0 -0.0011381996 0.0
PDB03 ? XNZ i P c 20180522 2202 09.794 GAU 0.0 0.0 -0.016595457 0.0

PDB08 ? XN1 i P c 20180522 2202 09.793 GAU 0.0 0.0 -0.05079041 0.0
PDB06 ? XN1 i P c 20180522 2202 09.793 GAU 0.0 0.0 -0.05027947 0.0
PDB05 ? XN1 e P c 20180522 2202 09.793 GAU 0.0 0.0 -0.0502067 0.0
PDB4 ? XNX i P c 20180522 2202 09.793 GAU 0.0 0.0 -0.0069642994 0.0
OT16 ? XNX i P c 20180522 2202 09.794 GAU 0.0 0.0 -0.0019510428 0.0
PDB3 ? XNY i P c 20180522 2202 09.794 GAU 0.0 0.0 -0.017613614 0.0
PDT1 ? XNZ i P c 20180522 2202 09.794 GAU 0.0 0.0 -0.019159742 0.0
PDB04 ? XN1 e P c 20180522 2202 09.794 GAU 0.0 0.0 -0.049190115 0.0
PST10 ? XNX e P c 20180522 2202 09.794 GAU 0.0 0.0 0.018892566 0.0
PSB7 ? XNY e P c 20180522 2202 09.795 GAU 0.0 0.0 0.008460409 0.0

PDB06 ? XN1 e P c 20180522 2202 12.693 GAU 0.0 0.0 -0.051145826 0.0
PDB08 ? XN1 e P c 20180522 2202 12.694 GAU 0.0 0.0 -0.051310483 0.0
PDB05 ? XN1 e P c 20180522 2202 12.694 GAU 0.0 0.0 -0.05174437 0.0
PDB10 ? XN1 e P c 20180522 2202 12.694 GAU 0.0 0.0 -0.05265625 0.0
PDB4 ? XNZ e P c 20180522 2202 12.695 GAU 0.0 0.0 -0.008406785 0.0
PSB7 ? XNZ e P c 20180522 2202 12.695 GAU 0.0 0.0 0.005239929 0.0
PDB3 ? XNZ e P c 20180522 2202 12.696 GAU 0.0 0.0 -0.016433783 0.0
PST10 ? XNZ e P c 20180522 2202 12.696 GAU 0.0 0.0 0.01910694 0.0
OB13 ? XNZ i P c 20180522 2202 12.696 GAU 0.0 0.0 -0.008750478 0.0

PDB06 ? XN1 i P c 20180522 2202 23.623 GAU 0.0 0.0 -0.05176097 0.0
PDB08 ? XN1 i P c 20180522 2202 23.623 GAU 0.0 0.0 -0.052201986 0.0
PDB05 ? XN1 e P c 20180522 2202 23.623 GAU 0.0 0.0 -0.052497044 0.0
PDB4 ? XNY i P c 20180522 2202 23.623 GAU 0.0 0.0 -0.007746599 0.0
PST10 ? XNX ? P c 20180522 2202 23.624 GAU 0.0 0.0 0.018837897 0.0
PDB3 ? XNX i P c 20180522 2202 23.624 GAU 0.0 0.0 -0.016502144 0.0
PDB09 ? XN1 i P c 20180522 2202 23.623 GAU 0.0 0.0 -0.05366517 0.0
PDT1 ? XNY i P c 20180522 2202 23.624 GAU 0.0 0.0 -0.026946219 0.0
OT16 ? XNX e P c 20180522 2202 23.625 GAU 0.0 0.0 -0.0013861599 0.0
PSB9 ? XNX i P c 20180522 2202 23.628 GAU 0.0 0.0 0.019410048 0.0

PDB08 ? XN1 e P c 20180522 2202 30.197 GAU 0.0 0.0 -0.05229417 0.0
PSB7 ? XNZ e P c 20180522 2202 30.199 GAU 0.0 0.0 0.005253176 0.0
PDB07 ? XN1 e P c 20180522 2202 30.196 GAU 0.0 0.0 -0.052559365 0.0
PDB05 ? XN1 e P c 20180522 2202 30.196 GAU 0.0 0.0 -0.052587412 0.0
OT16 ? XNZ e P c 20180522 2202 30.196 GAU 0.0 0.0 -0.0026713568 0.0
PST10 ? XNZ e P c 20180522 2202 30.197 GAU 0.0 0.0 0.019332232 0.0
PDB4 ? XNZ e P c 20180522 2202 30.197 GAU 0.0 0.0 -0.008298935 0.0
PDB04 ? XN1 e P c 20180522 2202 30.197 GAU 0.0 0.0 -0.051509988 0.0
PDB02 ? XN1 e P c 20180522 2202 30.197 GAU 0.0 0.0 -0.05183471 0.0
PDB03 ? XN1 e P c 20180522 2202 30.197 GAU 0.0 0.0 -0.052502908 0.0
PDT1 ? XNZ e P c 20180522 2202 30.197 GAU 0.0 0.0 -0.01971279 0.0

PDB08 ? XN1 e P c 20180522 2202 42.626 GAU 0.0 0.0 -0.050761007 0.0
PDB06 ? XN1 e P c 20180522 2202 42.627 GAU 0.0 0.0 -0.050534457 0.0
PDB04 ? XN1 e P c 20180522 2202 42.627 GAU 0.0 0.0 -0.05001189 0.0
PDB05 ? XN1 e P c 20180522 2202 42.627 GAU 0.0 0.0 -0.05097415 0.0
PDB4 ? XNZ e P c 20180522 2202 42.627 GAU 0.0 0.0 -0.008310333 0.0
OT16 ? XNZ e P c 20180522 2202 42.627 GAU 0.0 0.0 -4.5030843E-4 0.0
PST10 ? XNZ e P c 20180522 2202 42.628 GAU 0.0 0.0 0.019736594 0.0
PSB7 ? XNZ e P c 20180522 2202 42.628 GAU 0.0 0.0 0.0048057702 0.0
PDB3 ? XNZ e P c 20180522 2202 42.629 GAU 0.0 0.0 -0.017037852 0.0

PDB08 ? XN1 e P c 20180522 2202 50.524 GAU 0.0 0.0 -0.052646358 0.0
PDB06 ? XN1 e P c 20180522 2202 50.525 GAU 0.0 0.0 -0.052458107 0.0
OT16 ? XNZ e P c 20180522 2202 50.526 GAU 0.0 0.0 -0.0013733725 0.0
PST10 ? XNZ e P c 20180522 2202 50.525 GAU 0.0 0.0 0.018943835 0.0
PDB3 ? XNZ e P c 20180522 2202 50.526 GAU 0.0 0.0 -0.016634822 0.0
PDB05 ? XN1 e P c 20180522 2202 50.525 GAU 0.0 0.0 -0.053500757 0.0

PDB10 ? XN1 e P c 20180522 2202 54.908 GAU 0.0 0.0 -0.05353738 0.0
PDB06 ? XN1 e P c 20180522 2202 54.908 GAU 0.0 0.0 -0.051428176 0.0
PDB05 ? XN1 e P c 20180522 2202 54.908 GAU 0.0 0.0 -0.052326784 0.0
PDB04 ? XN1 e P c 20180522 2202 54.908 GAU 0.0 0.0 -0.051799674 0.0
PDB4 ? XNZ e P d 20180522 2202 54.908 GAU 0.0 0.0 -0.008486157 0.0
OT16 ? XNZ e P c 20180522 2202 54.908 GAU 0.0 0.0 5.6008104E-4 0.0
PST10 ? XNZ e P c 20180522 2202 54.909 GAU 0.0 0.0 0.018718759 0.0
PDB08 ? XN1 e P c 20180522 2202 54.909 GAU 0.0 0.0 -0.051982738 0.0
PDT1 ? XNZ e P c 20180522 2202 54.910 GAU 0.0 0.0 0.0 0.0
PSB7 ? XNZ e P c 20180522 2202 54.912 GAU 0.0 0.0 0.005575998 0.0

PDB05 ? XN1 e P c 20180522 2203 16.913 GAU 0.0 0.0 -0.05060141 0.0
PDB4 ? XNZ e P c 20180522 2203 16.913 GAU 0.0 0.0 -0.0083989175 0.0
OT16 ? XNZ e P c 20180522 2203 16.914 GAU 0.0 0.0 -4.2609172E-4 0.0
PST10 ? XNZ e P c 20180522 2203 16.914 GAU 0.0 0.0 0.018795535 0.0
PDB08 ? XN1 e P c 20180522 2203 16.913 GAU 0.0 0.0 -0.050501227 0.0
PDB06 ? XN1 e P c 20180522 2203 16.912 GAU 0.0 0.0 -0.05019684 0.0
PDB04 ? XN1 e P c 20180522 2203 16.913 GAU 0.0 0.0 -0.050386064 0.0
PDB3 ? XNZ e P c 20180522 2203 16.914 GAU 0.0 0.0 -0.016727487 0.0
PDB09 ? XN1 e P c 20180522 2203 16.914 GAU 0.0 0.0 -0.051547278 0.0
PSB9 ? XNZ e P c 20180522 2203 16.915 GAU 0.0 0.0 0.017250154 0.0

PDB04 ? XN1 e P c 20180522 2203 20.124 GAU 0.0 0.0 -0.052572258 0.0
PDB05 ? XN1 e P c 20180522 2203 20.124 GAU 0.0 0.0 -0.053196974 0.0
PDB06 ? XN1 e P c 20180522 2203 20.124 GAU 0.0 0.0 -0.05267409 0.0
PDB4 ? XNZ e P c 20180522 2203 20.125 GAU 0.0 0.0 -0.008393516 0.0
OT16 ? XNZ e P c 20180522 2203 20.125 GAU 0.0 0.0 -2.632616E-5 0.0
PDB3 ? XNZ e P c 20180522 2203 20.126 GAU 0.0 0.0 -0.016381893 0.0
PST10 ? XNZ e P c 20180522 2203 20.126 GAU 0.0 0.0 0.018799435 0.0
OB13 ? XNZ e P c 20180522 2203 20.127 GAU 0.0 0.0 -0.008517967 0.0

PDB4 ? XNZ e P c 20180522 2203 49.070 GAU 0.0 0.0 -0.007616 0.0
PDB04 ? XN1 e P c 20180522 2203 49.070 GAU 0.0 0.0 -0.050361358 0.0
PDB08 ? XN1 e P c 20180522 2203 49.070 GAU 0.0 0.0 -0.050336666 0.0
PDB05 ? XN1 e P c 20180522 2203 49.070 GAU 0.0 0.0 -0.050245065 0.0
PDB06 ? XN1 e P c 20180522 2203 49.070 GAU 0.0 0.0 -0.050435256 0.0
PST10 ? XNZ e P c 20180522 2203 49.071 GAU 0.0 0.0 0.019369636 0.0
PDT1 ? XNZ e P c 20180522 2203 49.071 GAU 0.0 0.0 -0.019566823 0.0
OT16 ? XNZ e P c 20180522 2203 49.071 GAU 0.0 0.0 -0.001786456 0.0

PDB05 ? XN1 e P c 20180522 2203 50.184 GAU 0.0 0.0 -0.051878396 0.0
PDB06 ? XN1 e P c 20180522 2203 50.184 GAU 0.0 0.0 -0.05162535 0.0
PDB08 ? XN1 e P c 20180522 2203 50.184 GAU 0.0 0.0 -0.051642567 0.0
PDB4 ? XNZ e P c 20180522 2203 50.184 GAU 0.0 0.0 -0.008252042 0.0
PST10 ? XNZ e P c 20180522 2203 50.185 GAU 0.0 0.0 0.018715058 0.0
PDB04 ? XN1 e P c 20180522 2203 50.185 GAU 0.0 0.0 -0.05172376 0.0
PSB7 ? XNZ e P c 20180522 2203 50.185 GAU 0.0 0.0 0.0048828255 0.0
OT16 ? XNZ e P c 20180522 2203 50.186 GAU 0.0 0.0 -0.002867619 0.0
PDB3 ? XNZ e P c 20180522 2203 50.186 GAU 0.0 0.0 -0.017049046 0.0
OB15 ? XNZ e P c 20180522 2203 50.190 GAU 0.0 0.0 -0.0031493185 0.0

OT16 ? XNZ e P c 20180522 2204 00.314 GAU 0.0 0.0 -1.0821037E-4 0.0
PDB04 ? XN1 e P c 20180522 2204 00.314 GAU 0.0 0.0 -0.052286915 0.0
PDB05 ? XN1 e P c 20180522 2204 00.314 GAU 0.0 0.0 -0.0526038 0.0
PDB06 ? XN1 e P c 20180522 2204 00.314 GAU 0.0 0.0 -0.05314549 0.0
PDB08 ? XN1 e P c 20180522 2204 00.314 GAU 0.0 0.0 -0.052788172 0.0
PDB4 ? XNX e P c 20180522 2204 00.315 GAU 0.0 0.0 -0.0059978887 0.0
PDB3 ? XNY e P c 20180522 2204 00.316 GAU 0.0 0.0 -0.01712354 0.0

PDB05 ? XN1 e P c 20180522 2204 25.792 GAU 0.0 0.0 -0.052638445 0.0
PDB06 ? XN1 e P c 20180522 2204 25.792 GAU 0.0 0.0 -0.052379645 0.0
PDB4 ? XNZ e P c 20180522 2204 25.792 GAU 0.0 0.0 -0.008251119 0.0
PDB3 ? XNZ e P c 20180522 2204 25.792 GAU 0.0 0.0 -0.016725887 0.0
PDB09 ? XN1 e P c 20180522 2204 25.792 GAU 0.0 0.0 -0.054004014 0.0
PSB7 ? XNZ e P c 20180522 2204 25.793 GAU 0.0 0.0 0.005002901 0.0
OT09 ? XN1 e P c 20180522 2204 25.793 GAU 0.0 0.0 -0.05462487 0.0

PDB06 ? XN1 e P c 20180522 2204 55.02101 GAU 0.0 0.0 -0.051696844 0.0
PDB05 ? XN1 e P c 20180522 2204 55.02113 GAU 0.0 0.0 -0.05184334 0.0
PDB4 ? XNZ e P c 20180522 2204 55.02114 GAU 0.0 0.0 -0.007969115 0.0
PSB7 ? XNZ e P c 20180522 2204 55.02216 GAU 0.0 0.0 0.0048720813 0.0
PDB3 ? XNZ e P c 20180522 2204 55.02293 GAU 0.0 0.0 -0.016433654 0.0
OT16 ? XNZ e P c 20180522 2204 55.02296 GAU 0.0 0.0 -0.0014980976 0.0
OB15 ? XNZ e P c 20180522 2204 55.02592 GAU 0.0 0.0 -0.002849946 0.0

PDB4 ? XNZ e P c 20180522 2205 02.77485 GAU 0.0 0.0 -0.008412323 0.0
PDB05 ? XN1 e P c 20180522 2205 02.77494 GAU 0.0 0.0 -0.05207153 0.0
PDB06 ? XN1 e P c 20180522 2205 02.77507 GAU 0.0 0.0 -0.051985458 0.0
PDB08 ? XN1 e P c 20180522 2205 02.77518 GAU 0.0 0.0 -0.052109215 0.0
PDB04 ? XN1 e P c 20180522 2205 02.77545 GAU 0.0 0.0 -0.051650114 0.0
OT16 ? XNZ e P c 20180522 2205 02.77617 GAU 0.0 0.0 -0.0025570882 0.0
PDB3 ? XNZ e P c 20180522 2205 02.77716 GAU 0.0 0.0 -0.016618317 0.0
PSB7 ? XNZ e P c 20180522 2205 02.77820 GAU 0.0 0.0 0.004784509 0.0

PDB4 ? XNZ e P c 20180522 2205 05.79338 GAU 0.0 0.0 -0.007980519 0.0
PDB05 ? XN1 e P c 20180522 2205 05.79391 GAU 0.0 0.0 -0.051907983 0.0
PDB06 ? XN1 e P c 20180522 2205 05.79396 GAU 0.0 0.0 -0.05207908 0.0
PDB04 ? XN1 e P c 20180522 2205 05.79428 GAU 0.0 0.0 -0.051671803 0.0
OT16 ? XNZ e P c 20180522 2205 05.79554 GAU 0.0 0.0 -1.0350952E-4 0.0
PST12 ? XNZ e P c 20180522 2205 05.79817 GAU 0.0 0.0 0.019735228 0.0

PDB06 ? XN1 e P c 20180522 2205 24.69186 GAU 0.0 0.0 -0.0502982 0.0
PDB4 ? XNZ e P c 20180522 2205 24.69264 GAU 0.0 0.0 -0.00749571 0.0
PDB05 ? XN1 e P c 20180522 2205 24.69294 GAU 0.0 0.0 -0.051484957 0.0
PDB07 ? XN1 e P c 20180522 2205 24.69294 GAU 0.0 0.0 -0.050554637 0.0
PDB04 ? XN1 e P c 20180522 2205 24.69309 GAU 0.0 0.0 -0.05056521 0.0
PDB09 ? XN1 e P c 20180522 2205 24.69317 GAU 0.0 0.0 -0.05195989 0.0
OT16 ? XNZ e P c 20180522 2205 24.69319 GAU 0.0 0.0 -0.002787097 0.0
PDT1 ? XNZ e P c 20180522 2205 24.69323 GAU 0.0 0.0 -0.019320928 0.0
PDB3 ? XNZ e P c 20180522 2205 24.69325 GAU 0.0 0.0 -0.01650241 0.0
PST10 ? XNZ e P c 20180522 2205 24.69393 GAU 0.0 0.0 0.019665834 0.0
PSB9 ? XNZ e P c 20180522 2205 24.69644 GAU 0.0 0.0 0.017255994 0.0
PST12 ? XNZ e P c 20180522 2205 24.69682 GAU 0.0 0.0 0.019131433 0.0

PDB06 ? XN1 e P c 20180522 2205 31.40973 GAU 0.0 0.0 -0.051727653 0.0
PDB08 ? XN1 e P c 20180522 2205 31.40982 GAU 0.0 0.0 -0.05223663 0.0
PDB4 ? XNZ e P c 20180522 2205 31.41027 GAU 0.0 0.0 -0.008378852 0.0
PDB05 ? XN1 e P c 20180522 2205 31.41038 GAU 0.0 0.0 -0.05246728 0.0
PDB3 ? XNZ e P c 20180522 2205 31.41062 GAU 0.0 0.0 -0.01719652 0.0
PDB04 ? XN1 e P c 20180522 2205 31.41095 GAU 0.0 0.0 -0.052147623 0.0
PST10 ? XNZ e P c 20180522 2205 31.41133 GAU 0.0 0.0 0.019531805 0.0
OT16 ? XNZ e P c 20180522 2205 31.41195 GAU 0.0 0.0 -8.738565E-4 0.0

PDB09 ? XN1 e P c 20180523 1558 57.55762 GAU 0.0 0.0 -0.051328134 0.0
PDB08 ? XN1 e P c 20180523 1558 57.55762 GAU 0.0 0.0 -0.04981498 0.0
PDB05 ? XN1 e P c 20180523 1558 57.55769 GAU 0.0 0.0 -0.049494196 0.0
PDB04 ? XN1 e P c 20180523 1558 57.55795 GAU 0.0 0.0 -0.04898261 0.0
OT11 ? XN1 e P c 20180523 1558 57.55806 GAU 0.0 0.0 -0.056998648 0.0
OT04 ? XN1 e P c 20180523 1558 57.55806 GAU 0.0 0.0 -0.05134995 0.0
PDB11 ? XN1 e P c 20180523 1558 57.55809 GAU 0.0 0.0 -0.05092821 0.0
PDB4 ? XNZ e P c 20180523 1558 57.55811 GAU 0.0 0.0 -0.008119962 0.0
PDB03 ? XN1 e P c 20180523 1558 57.55822 GAU 0.0 0.0 -0.05012178 0.0
PDT1 ? XNZ e P c 20180523 1558 57.55833 GAU 0.0 0.0 -0.017774582 0.0
OT07 ? XN1 e P c 20180523 1558 57.55840 GAU 0.0 0.0 -0.051107116 0.0
PDB02 ? XN1 e P c 20180523 1558 57.55843 GAU 0.0 0.0 -0.05165058 0.0
PDB3 ? XNZ e P c 20180523 1558 57.55857 GAU 0.0 0.0 -0.017486827 0.0
OT16 ? XNZ e P c 20180523 1558 57.55857 GAU 0.0 0.0 -9.152002E-4 0.0
PST10 ? XNZ e P c 20180523 1558 57.55874 GAU 0.0 0.0 0.019329412 0.0
PDB01 ? XN1 e P c 20180523 1558 57.55877 GAU 0.0 0.0 -0.051276173 0.0
PST12 ? XNZ e P c 20180523 1558 57.56007 GAU 0.0 0.0 0.019940166 0.0
PSB7 ? XNZ e P c 20180523 1558 57.56070 GAU 0.0 0.0 0.0049208384 0.0
OB15 ? XNZ e P c 20180523 1558 57.56262 GAU 0.0 0.0 -0.002852953 0.0

PDB4 ? XNZ e P c 20180523 1558 58.02298 GAU 0.0 0.0 -0.007945198 0.0
PDB10 ? XN1 e P c 20180523 1558 58.02320 GAU 0.0 0.0 -0.051726725 0.0
PDT1 ? XNZ e P c 20180523 1558 58.02326 GAU 0.0 0.0 -0.019282037 0.0
